{"type": "FeatureCollection", "features": [ {"type": "Feature", "properties": {"norad_id": 30967, "name": "FENGYUN 1C DEB", "group": "fengyun-1c-debris", "lat": -41.84633968695761, "lon": -63.91994494987208, "alt_km": 678.9420771006389, "timestamp": "2025-12-08T03:50:07.276840+00:00", "meta": {"OBJECT_NAME": "FENGYUN 1C DEB", "OBJECT_ID": "1999-025BBH", "EPOCH": "2025-12-06T19:04:03.280224", "MEAN_MOTION": 14.57067977, "ECCENTRICITY": 0.00947673, "INCLINATION": 98.7634, "RA_OF_ASC_NODE": 286.7038, "ARG_OF_PERICENTER": 258.0891, "MEAN_ANOMALY": 100.9668, "EPHEMERIS_TYPE": 0, "CLASSIFICATION_TYPE": "U", "NORAD_CAT_ID": 30967, "ELEMENT_SET_NO": 999, "REV_AT_EPOCH": 98927, "BSTAR": 0.0015876681, "MEAN_MOTION_DOT": 7.551e-05, "MEAN_MOTION_DDOT": 0}, "tle": {"line1": "1 30967U 99025BBH 25340.79448241  .00007551  00000+0  15877-2 0  9990", "line2": "2 30967  98.7634 286.7038 0094767 258.0891 100.9668 14.57067977989272"}}, "geometry": {"type": "Point", "coordinates": [-63.91994494987208, -41.84633968695761]}}, {"type": "Feature", "properties": {"norad_id": 30971, "name": "FENGYUN 1C DEB", "group": "fengyun-1c-debris", "lat": -74.16506889366946, "lon": 60.30033434234757, "alt_km": 636.6596883460425, "timestamp": "2025-12-08T03:50:07.276850+00:00", "meta": {"OBJECT_NAME": "FENGYUN 1C DEB", "OBJECT_ID": "1999-025BBM", "EPOCH": "2025-12-07T02:12:54.937728", "MEAN_MOTION": 14.7162492, "ECCENTRICITY": 0.01637075, "INCLINATION": 99.2096, "RA_OF_ASC_NODE": 24.2011, "ARG_OF_PERICENTER": 208.618, "MEAN_ANOMALY": 180.3042, "EPHEMERIS_TYPE": 0, "CLASSIFICATION_TYPE": "U", "NORAD_CAT_ID": 30971, "ELEMENT_SET_NO": 999, "REV_AT_EPOCH": 99634, "BSTAR": 0.00099076634, "MEAN_MOTION_DOT": 7.543e-05, "MEAN_MOTION_DDOT": 0}, "tle": {"line1": "1 30971U 99025BBM 25341.09230252  .00007543  00000+0  99077-3 0  9996", "line2": "2 30971  99.2096  24.2011 0163707 208.6180 180.3042 14.71624920996341"}}, "geometry": {"type": "Point", "coordinates": [60.30033434234757, -74.16506889366946]}}, {"type": "Feature", "properties": {"norad_id": 30979, "name": "FENGYUN 1C DEB", "group": "fengyun-1c-debris", "lat": -38.742150181002074, "lon": 54.38506408304412, "alt_km": 532.6302807493157, "timestamp": "2025-12-08T03:50:07.276860+00:00", "meta": {"OBJECT_NAME": "FENGYUN 1C DEB", "OBJECT_ID": "1999-025BBV", "EPOCH": "2025-12-06T23:17:19.804704", "MEAN_MOTION": 14.78597984, "ECCENTRICITY": 0.01907881, "INCLINATION": 97.8299, "RA_OF_ASC_NODE": 239.5661, "ARG_OF_PERICENTER": 260.1147, "MEAN_ANOMALY": 112.7222, "EPHEMERIS_TYPE": 0, "CLASSIFICATION_TYPE": "U", "NORAD_CAT_ID": 30979, "ELEMENT_SET_NO": 999, "REV_AT_EPOCH": 99060, "BSTAR": 0.0016009194, "MEAN_MOTION_DOT": 0.00015892, "MEAN_MOTION_DDOT": 0}, "tle": {"line1": "1 30979U 99025BBV 25340.97036811  .00015892  00000+0  16009-2 0  9994", "line2": "2 30979  97.8299 239.5661 0190788 260.1147 112.7222 14.78597984990603"}}, "geometry": {"type": "Point", "coordinates": [54.38506408304412, -38.742150181002074]}}, {"type": "Feature", "properties": {"norad_id": 30982, "name": "FENGYUN 1C DEB", "group": "fengyun-1c-debris", "lat": 7.148355220253526, "lon": 153.53762951126458, "alt_km": 839.695232277204, "timestamp": "2025-12-08T03:50:07.276869+00:00", "meta": {"OBJECT_NAME": "FENGYUN 1C DEB", "OBJECT_ID": "1999-025BBY", "EPOCH": "2025-12-07T05:36:06.033024", "MEAN_MOTION": 14.50919064, "ECCENTRICITY": 0.01808967, "INCLINATION": 98.2176, "RA_OF_ASC_NODE": 331.5938, "ARG_OF_PERICENTER": 329.5661, "MEAN_ANOMALY": 47.9597, "EPHEMERIS_TYPE": 0, "CLASSIFICATION_TYPE": "U", "NORAD_CAT_ID": 30982, "ELEMENT_SET_NO": 999, "REV_AT_EPOCH": 70974, "BSTAR": 0.00067837753, "MEAN_MOTION_DOT": 3.258e-05, "MEAN_MOTION_DDOT": 0}, "tle": {"line1": "1 30982U 99025BBY 25341.23340316  .00003258  00000+0  67838-3 0  9996", "line2": "2 30982  98.2176 331.5938 0180896 329.5661  47.9597 14.50919064709740"}}, "geometry": {"type": "Point", "coordinates": [153.53762951126458, 7.148355220253526]}}, {"type": "Feature", "properties": {"norad_id": 30984, "name": "FENGYUN 1C DEB", "group": "fengyun-1c-debris", "lat": 59.59717200346856, "lon": 4.241414787604164, "alt_km": 647.1276955455642, "timestamp": "2025-12-08T03:50:07.276879+00:00", "meta": {"OBJECT_NAME": "FENGYUN 1C DEB", "OBJECT_ID": "1999-025BCA", "EPOCH": "2025-12-06T08:30:56.073024", "MEAN_MOTION": 14.50370178, "ECCENTRICITY": 0.01279027, "INCLINATION": 98.2634, "RA_OF_ASC_NODE": 16.8098, "ARG_OF_PERICENTER": 27.6378, "MEAN_ANOMALY": 333.1539, "EPHEMERIS_TYPE": 0, "CLASSIFICATION_TYPE": "U", "NORAD_CAT_ID": 30984, "ELEMENT_SET_NO": 999, "REV_AT_EPOCH": 95071, "BSTAR": 0.0013921442, "MEAN_MOTION_DOT": 5.992e-05, "MEAN_MOTION_DDOT": 0}, "tle": {"line1": "1 30984U 99025BCA 25340.35481566  .00005992  00000+0  13921-2 0  9993", "line2": "2 30984  98.2634  16.8098 0127902  27.6378 333.1539 14.50370178950719"}}, "geometry": {"type": "Point", "coordinates": [4.241414787604164, 59.59717200346856]}}, {"type": "Feature", "properties": {"norad_id": 30988, "name": "FENGYUN 1C DEB", "group": "fengyun-1c-debris", "lat": -40.60411120770548, "lon": 101.47185945618136, "alt_km": 552.227037551892, "timestamp": "2025-12-08T03:50:07.276889+00:00", "meta": {"OBJECT_NAME": "FENGYUN 1C DEB", "OBJECT_ID": "1999-025BCE", "EPOCH": "2025-12-07T03:14:51.866592", "MEAN_MOTION": 15.25170866, "ECCENTRICITY": 0.0116568, "INCLINATION": 98.5433, "RA_OF_ASC_NODE": 287.7072, "ARG_OF_PERICENTER": 359.5195, "MEAN_ANOMALY": 0.5908, "EPHEMERIS_TYPE": 0, "CLASSIFICATION_TYPE": "U", "NORAD_CAT_ID": 30988, "ELEMENT_SET_NO": 999, "REV_AT_EPOCH": 99478, "BSTAR": 0.0030765412, "MEAN_MOTION_DOT": 0.00094728, "MEAN_MOTION_DDOT": 0}, "tle": {"line1": "1 30988U 99025BCE 25341.13532253  .00094728  00000+0  30765-2 0  9994", "line2": "2 30988  98.5433 287.7072 0116568 359.5195   0.5908 15.25170866994789"}}, "geometry": {"type": "Point", "coordinates": [101.47185945618136, -40.60411120770548]}}, {"type": "Feature", "properties": {"norad_id": 30989, "name": "FENGYUN 1C DEB", "group": "fengyun-1c-debris", "lat": 38.498838217331446, "lon": 48.38247751959124, "alt_km": 823.7711661413732, "timestamp": "2025-12-08T03:50:07.276899+00:00", "meta": {"OBJECT_NAME": "FENGYUN 1C DEB", "OBJECT_ID": "1999-025BCF", "EPOCH": "2025-12-07T03:52:24.665376", "MEAN_MOTION": 14.13887111, "ECCENTRICITY": 0.00916099, "INCLINATION": 99.0532, "RA_OF_ASC_NODE": 54.6573, "ARG_OF_PERICENTER": 115.4759, "MEAN_ANOMALY": 245.5925, "EPHEMERIS_TYPE": 0, "CLASSIFICATION_TYPE": "U", "NORAD_CAT_ID": 30989, "ELEMENT_SET_NO": 999, "REV_AT_EPOCH": 95909, "BSTAR": 0.0023383232, "MEAN_MOTION_DOT": 4.572e-05, "MEAN_MOTION_DDOT": 0}, "tle": {"line1": "1 30989U 99025BCF 25341.16139659  .00004572  00000+0  23383-2 0  9997", "line2": "2 30989  99.0532  54.6573 0091609 115.4759 245.5925 14.13887111959095"}}, "geometry": {"type": "Point", "coordinates": [48.38247751959124, 38.498838217331446]}}, {"type": "Feature", "properties": {"norad_id": 30993, "name": "FENGYUN 1C DEB", "group": "fengyun-1c-debris", "lat": -16.32912924695987, "lon": 77.10077083312204, "alt_km": 770.4852345619965, "timestamp": "2025-12-08T03:50:07.276909+00:00", "meta": {"OBJECT_NAME": "FENGYUN 1C DEB", "OBJECT_ID": "1999-025BCK", "EPOCH": "2025-12-06T05:12:58.034304", "MEAN_MOTION": 14.35318167, "ECCENTRICITY": 0.00165169, "INCLINATION": 98.8473, "RA_OF_ASC_NODE": 72.4947, "ARG_OF_PERICENTER": 35.3982, "MEAN_ANOMALY": 356.9031, "EPHEMERIS_TYPE": 0, "CLASSIFICATION_TYPE": "U", "NORAD_CAT_ID": 30993, "ELEMENT_SET_NO": 999, "REV_AT_EPOCH": 96826, "BSTAR": 0.0030490933, "MEAN_MOTION_DOT": 8.716e-05, "MEAN_MOTION_DDOT": 0}, "tle": {"line1": "1 30993U 99025BCK 25340.21733836  .00008716  00000+0  30491-2 0  9996", "line2": "2 30993  98.8473  72.4947 0016516  35.3982 356.9031 14.35318167968264"}}, "geometry": {"type": "Point", "coordinates": [77.10077083312204, -16.32912924695987]}}, {"type": "Feature", "properties": {"norad_id": 30994, "name": "FENGYUN 1C DEB", "group": "fengyun-1c-debris", "lat": 49.50874773653396, "lon": -19.587782206534445, "alt_km": 858.1046015722595, "timestamp": "2025-12-08T03:50:07.276918+00:00", "meta": {"OBJECT_NAME": "FENGYUN 1C DEB", "OBJECT_ID": "1999-025BCL", "EPOCH": "2025-12-06T15:52:37.758432", "MEAN_MOTION": 14.11765396, "ECCENTRICITY": 0.00175337, "INCLINATION": 98.7001, "RA_OF_ASC_NODE": 349.2904, "ARG_OF_PERICENTER": 191.9724, "MEAN_ANOMALY": 168.1034, "EPHEMERIS_TYPE": 0, "CLASSIFICATION_TYPE": "U", "NORAD_CAT_ID": 30994, "ELEMENT_SET_NO": 999, "REV_AT_EPOCH": 96499, "BSTAR": 0.00027729376, "MEAN_MOTION_DOT": 4.63e-06, "MEAN_MOTION_DDOT": 0}, "tle": {"line1": "1 30994U 99025BCL 25340.66154813  .00000463  00000+0  27729-3 0  9990", "line2": "2 30994  98.7001 349.2904 0017533 191.9724 168.1034 14.11765396964998"}}, "geometry": {"type": "Point", "coordinates": [-19.587782206534445, 49.50874773653396]}}, {"type": "Feature", "properties": {"norad_id": 30996, "name": "FENGYUN 1C DEB", "group": "fengyun-1c-debris", "lat": -55.656894965063714, "lon": 53.62601476846251, "alt_km": 767.6358302805183, "timestamp": "2025-12-08T03:50:07.276928+00:00", "meta": {"OBJECT_NAME": "FENGYUN 1C DEB", "OBJECT_ID": "1999-025BCN", "EPOCH": "2025-12-07T05:41:21.278976", "MEAN_MOTION": 14.3536378, "ECCENTRICITY": 0.00505402, "INCLINATION": 98.9438, "RA_OF_ASC_NODE": 245.9957, "ARG_OF_PERICENTER": 308.1849, "MEAN_ANOMALY": 203.5216, "EPHEMERIS_TYPE": 0, "CLASSIFICATION_TYPE": "U", "NORAD_CAT_ID": 30996, "ELEMENT_SET_NO": 999, "REV_AT_EPOCH": 97484, "BSTAR": 0.0016339753, "MEAN_MOTION_DOT": 4.711e-05, "MEAN_MOTION_DDOT": 0}, "tle": {"line1": "1 30996U 99025BCN 25341.23705184  .00004711  00000+0  16340-2 0  9995", "line2": "2 30996  98.9438 245.9957 0050540 308.1849 203.5216 14.35363780974849"}}, "geometry": {"type": "Point", "coordinates": [53.62601476846251, -55.656894965063714]}}]}